NORAD_CAT_ID,OBJECT_NAME,OBJECT_TYPE,EPOCH,MEAN_MOTION,ECCENTRICITY,INCLINATION,RA_OF_ASC_NODE,ARG_OF_PERICENTER,MEAN_ANOMALY,BSTAR,MEAN_MOTION_DOT,MEAN_MOTION_DDOT,TLE_LINE0,TLE_LINE1,TLE_LINE2,SEMIMAJOR_AXIS,PERIOD,APOGEE,PERIGEE,DECAYED
49163.0,STARLINK-3088,PAYLOAD,2024-02-28 22:42:57,14.98319455,0.0003223,70.0002,339.6102,275.0173,85.0618,9.6899e-06,2.3e-07,0.0,0 STARLINK-3088,1 49163U 21082AK  24059.94650456  .00000023  00000-0  96899-5 0  9996,2 49163  70.0002 339.6102 0003223 275.0173  85.0618 14.98319455136820,6950.226,96.108,574.331,569.85,0.0
49163.0,STARLINK-3088,PAYLOAD,2024-02-29 03:31:21,14.983424,0.0002867,70.0004,339.1042,280.3321,79.7514,-0.00021654,-2.677e-05,0.0,0 STARLINK-3088,1 49163U 21082AK  24060.14677590 -.00002677  00000-0 -21654-3 0  9992,2 49163  70.0004 339.1042 0002867 280.3321  79.7514 14.98342400136862,6950.155,96.106,574.012,570.027,0.0
49163.0,STARLINK-3088,PAYLOAD,2024-02-29 11:32:02,14.98329831,0.0003054,70.0007,338.2624,283.5747,76.5071,3.964e-05,3.8e-06,0.0,0 STARLINK-3088,1 49163U 21082AK  24060.48057944  .00000380  00000-0  39640-4 0  9996,2 49163  70.0007 338.2624 0003054 283.5747  76.5071 14.98329831136919,6950.193,96.107,574.181,569.936,0.0
49163.0,STARLINK-3088,PAYLOAD,2024-02-29 19:32:41,14.98353109,0.0003249,70.0006,337.4216,269.7648,90.3139,-0.00042319,-5.142e-05,0.0,0 STARLINK-3088,1 49163U 21082AK  24060.81437499 -.00005142  00000-0 -42319-3 0  9999,2 49163  70.0006 337.4216 0003249 269.7648  90.3139 14.98353109136967,6950.121,96.106,574.245,569.728,0.0
49163.0,STARLINK-3088,PAYLOAD,2024-02-29 22:44:58,14.9834899,0.0003054,70.0007,337.085,266.0154,94.0656,-0.00036625,-4.462e-05,0.0,0 STARLINK-3088,1 49163U 21082AK  24060.94789440 -.00004462  00000-0 -36625-3 0  9996,2 49163  70.0007 337.0850 0003054 266.0154  94.0656 14.98348990136972,6950.134,96.106,574.122,569.877,0.0
49163.0,STARLINK-3088,PAYLOAD,2024-03-01 11:34:02,14.9832556,0.0002981,70.0007,335.7388,268.221,91.8607,0.00022736,2.621e-05,0.0,0 STARLINK-3088,1 49163U 21082AK  24061.48197739  .00002621  00000-0  22736-3 0  9991,2 49163  70.0007 335.7388 0002981 268.2210  91.8607 14.98325560137068,6950.207,96.107,574.143,570.0,0.0
49163.0,STARLINK-3088,PAYLOAD,2024-03-01 21:10:51,14.98329727,0.0002901,70.0009,334.7295,268.1419,91.9407,0.00011406,1.268e-05,0.0,0 STARLINK-3088,1 49163U 21082AK  24061.88253826  .00001268  00000-0  11406-3 0  9993,2 49163  70.0009 334.7295 0002901 268.1419  91.9407 14.98329727137112,6950.194,96.107,574.075,570.042,0.0
49163.0,STARLINK-3088,PAYLOAD,2024-03-02 03:35:23,14.98334043,0.0002941,70.0007,334.0562,267.1596,92.9227,0.00016339,1.857e-05,0.0,0 STARLINK-3088,1 49163U 21082AK  24062.14957431  .00001857  00000-0  16339-3 0  9990,2 49163  70.0007 334.0562 0002941 267.1596  92.9227 14.98334043137151,6950.18,96.107,574.089,570.001,0.0
49163.0,STARLINK-3088,PAYLOAD,2024-03-02 19:36:44,14.9832439,0.0002884,70.0008,332.3731,268.1213,91.9616,0.00016216,1.842e-05,0.0,0 STARLINK-3088,1 49163U 21082AK  24062.81718066  .00001842  00000-0  16216-3 0  9991,2 49163  70.0008 332.3731 0002884 268.1213  91.9616 14.98324390137261,6950.21,96.107,574.08,570.071,0.0
49163.0,STARLINK-3088,PAYLOAD,2024-03-02 21:12:52,14.98319819,0.000292,70.0007,332.2048,267.5172,92.5653,0.00022219,2.558e-05,0.0,0 STARLINK-3088,1 49163U 21082AK  24062.88394267  .00002558  00000-0  22219-3 0  9996,2 49163  70.0007 332.2048 0002920 267.5172  92.5653 14.98319819137266,6950.224,96.108,574.119,570.06,0.0
49163.0,STARLINK-3088,PAYLOAD,2024-03-03 03:37:24,14.98330292,0.0002828,70.0008,331.5316,267.7186,92.3649,3.719e-05,3.51e-06,0.0,0 STARLINK-3088,1 49163U 21082AK  24063.15097898  .00000351  00000-0  37190-4 0  9991,2 49163  70.0008 331.5316 0002828 267.7186  92.3649 14.98330292137307,6950.192,96.107,574.023,570.091,0.0
49163.0,STARLINK-3088,PAYLOAD,2024-03-03 19:38:45,14.98331228,0.000285,70.001,329.8479,264.2849,95.7985,7.9269e-05,8.53e-06,0.0,0 STARLINK-3088,1 49163U 21082AK  24063.81857662  .00000853  00000-0  79269-4 0  9997,2 49163  70.0010 329.8479 0002850 264.2849  95.7985 14.98331228137415,6950.189,96.107,574.035,570.073,0.0
49163.0,STARLINK-3088,PAYLOAD,2024-03-03 21:14:53,14.98315312,0.0002851,70.0009,329.6799,260.0458,100.0379,0.00046057,5.405e-05,0.0,0 STARLINK-3088,1 49163U 21082AK  24063.88534137  .00005405  00000-0  46057-3 0  9999,2 49163  70.0009 329.6799 0002851 260.0458 100.0379 14.98315312137410,6950.238,96.108,574.085,570.122,0.0
49163.0,STARLINK-3088,PAYLOAD,2024-03-04 03:39:24,14.98342735,0.0002759,70.0005,329.006,263.0465,97.038,0.0001287,1.443e-05,0.0,0 STARLINK-3088,1 49163U 21082AK  24064.15236761  .00001443  00000-0  12870-3 0  9996,2 49163  70.0005 329.0060 0002759 263.0465  97.0380 14.98342735137460,6950.154,96.106,573.936,570.101,0.0
49163.0,STARLINK-3088,PAYLOAD,2024-03-04 19:40:46,14.98323616,0.0002453,70.0028,327.3248,264.5985,95.4894,9.3231e-05,1.019e-05,0.0,0 STARLINK-3088,1 49163U 21082AK  24064.81997968  .00001019  00000-0  93231-4 0  9992,2 49163  70.0028 327.3248 0002453 264.5985  95.4894 14.98323616137568,6950.213,96.107,573.783,570.373,0.0
49163.0,STARLINK-3088,PAYLOAD,2024-03-04 21:16:54,14.98323044,0.0002484,70.0025,327.1562,265.231,94.8566,9.0085e-05,9.82e-06,0.0,0 STARLINK-3088,1 49163U 21082AK  24064.88674015  .00000982  00000-0  90085-4 0  9996,2 49163  70.0025 327.1562 0002484 265.2310  94.8566 14.98323044137560,6950.214,96.107,573.806,570.353,0.0
49163.0,STARLINK-3088,PAYLOAD,2024-03-05 03:41:26,14.98324148,0.000246,70.0018,326.4804,266.1236,93.9641,0.00011277,1.253e-05,0.0,0 STARLINK-3088,1 49163U 21082AK  24065.15377929  .00001253  00000-0  11277-3 0  9998,2 49163  70.0018 326.4804 0002460 266.1236  93.9641 14.98324148137609,6950.211,96.107,573.786,570.366,0.0
49163.0,STARLINK-3088,PAYLOAD,2024-03-05 19:42:47,14.98328838,0.0002764,70.0003,324.7971,269.6451,90.4391,-1.1584e-05,-2.31e-06,0.0,0 STARLINK-3088,1 49163U 21082AK  24065.82137974 -.00000231  00000-0 -11584-4 0  9995,2 49163  70.0003 324.7971 0002764 269.6451  90.4391 14.98328838137719,6950.196,96.107,573.983,570.14,0.0
49163.0,STARLINK-3088,PAYLOAD,2024-03-06 03:43:27,14.98330687,0.0002576,70.0008,323.9553,268.3029,91.7835,4.9292e-05,4.95e-06,0.0,0 STARLINK-3088,1 49163U 21082AK  24066.15517766  .00000495  00000-0  49292-4 0  9990,2 49163  70.0008 323.9553 0002576 268.3029  91.7835 14.98330687137755,6950.191,96.107,573.846,570.265,0.0
49163.0,STARLINK-3088,PAYLOAD,2024-03-06 19:44:47,14.98329644,0.0002785,70.0005,322.2726,265.2811,94.803,5.9126e-05,6.13e-06,0.0,0 STARLINK-3088,1 49163U 21082AK  24066.82277695  .00000613  00000-0  59126-4 0  9997,2 49163  70.0005 322.2726 0002785 265.2811  94.8030 14.98329644137867,6950.194,96.107,573.995,570.123,0.0
49163.0,STARLINK-3088,PAYLOAD,2024-03-07 10:10:00,14.98332099,0.0002713,69.9999,320.7593,275.8761,84.2089,1.9884e-05,1.44e-06,0.0,0 STARLINK-3088,1 49163U 21082AK  24067.42361744  .00000144  00000-0  19884-4 0  9999,2 49163  69.9999 320.7593 0002713 275.8761  84.2089 14.98332099137947,6950.186,96.107,573.937,570.166,0.0
49163.0,STARLINK-3088,PAYLOAD,2024-03-08 02:11:21,14.98330244,0.0002786,70.0003,319.0751,259.0033,101.0813,5.1654e-05,5.23e-06,0.0,0 STARLINK-3088,1 49163U 21082AK  24068.09121751  .00000523  00000-0  51654-4 0  9997,2 49163  70.0003 319.0751 0002786 259.0033 101.0813 14.98330244138055,6950.192,96.107,573.993,570.121,0.0
49163.0,STARLINK-3088,PAYLOAD,2024-03-08 10:12:01,14.98332649,0.000285,70.0008,318.2324,273.0651,87.0182,1.2314e-05,5.4e-07,0.0,0 STARLINK-3088,1 49163U 21082AK  24068.42501710  .00000054  00000-0  12314-4 0  9990,2 49163  70.0008 318.2324 0002850 273.0651  87.0182 14.98332649138098,6950.185,96.107,574.031,570.069,0.0
49163.0,STARLINK-3088,PAYLOAD,2024-03-08 23:01:08,14.98298872,0.0004995,69.9999,316.8872,274.9939,85.065,-0.00032289,-3.941e-05,0.0,0 STARLINK-3088,1 49163U 21082AK  24068.95912229 -.00003941  00000-0 -32289-3 0  9991,2 49163  69.9999 316.8872 0004995 274.9939  85.0650 14.98298872138173,6950.289,96.109,575.626,568.682,0.0
49163.0,STARLINK-3088,PAYLOAD,2024-03-09 02:13:21,14.98336921,0.0002905,69.9998,316.5489,265.816,94.2667,0.00013746,1.548e-05,0.0,0 STARLINK-3088,1 49163U 21082AK  24069.09260966  .00001548  00000-0  13746-3 0  9997,2 49163  69.9998 316.5489 0002905 265.8160  94.2667 14.98336921138209,6950.171,96.107,574.056,570.017,0.0
49163.0,STARLINK-3088,PAYLOAD,2024-03-09 10:14:01,14.98339493,0.0003041,69.9999,315.7072,280.4631,79.6185,-1.7206e-05,-2.98e-06,0.0,0 STARLINK-3088,1 49163U 21082AK  24069.42641072 -.00000298  00000-0 -17206-4 0  9994,2 49163  69.9999 315.7072 0003041 280.4631  79.6185 14.98339493138240,6950.164,96.106,574.142,569.915,0.0
49163.0,STARLINK-3088,PAYLOAD,2024-03-09 23:03:08,14.98304632,0.0004557,69.9989,314.3604,275.4613,84.6026,-0.00025828,-3.172e-05,0.0,0 STARLINK-3088,1 49163U 21082AK  24069.96051512 -.00003172  00000-0 -25828-3 0  9999,2 49163  69.9989 314.3604 0004557 275.4613  84.6026 14.98304632138328,6950.271,96.109,575.304,568.969,0.0
49163.0,STARLINK-3088,PAYLOAD,2024-03-10 02:15:22,14.9833588,0.0003151,69.9991,314.0236,265.5701,94.5098,0.00010687,1.183e-05,0.0,0 STARLINK-3088,1 49163U 21082AK  24070.09400796  .00001183  00000-0  10687-3 0  9992,2 49163  69.9991 314.0236 0003151 265.5701  94.5098 14.98335880138357,6950.175,96.107,574.23,569.85,0.0
49163.0,STARLINK-3088,PAYLOAD,2024-03-10 21:28:58,14.98368978,0.0003929,70.0008,312.0035,269.2164,90.8545,-0.00068416,-8.256e-05,0.0,0 STARLINK-3088,1 49163U 21082AK  24070.89511839 -.00008256  00000-0 -68416-3 0  9994,2 49163  70.0008 312.0035 0003929 269.2164  90.8545 14.98368978138474,6950.072,96.104,574.668,569.207,0.0
49163.0,STARLINK-3088,PAYLOAD,2024-03-10 23:05:07,14.98365702,0.0002978,69.9999,311.8364,267.5799,92.5019,-0.00056164,-6.794e-05,0.0,0 STARLINK-3088,1 49163U 21082AK  24070.96188965 -.00006794  00000-0 -56164-3 0  9994,2 49163  69.9999 311.8364 0002978 267.5799  92.5019 14.98365702138477,6950.082,96.105,574.017,569.878,0.0
